[{"OBJECT_NAME":"QIANFAN-93","OBJECT_ID":"2025-233C","EPOCH":"2026-03-09T23:30:37.871136","MEAN_MOTION":13.51005194,"ECCENTRICITY":0.00019783,"INCLINATION":88.9948,"RA_OF_ASC_NODE":53.2305,"ARG_OF_PERICENTER":90.5673,"MEAN_ANOMALY":269.5705,"EPHEMERIS_TYPE":0,"CLASSIFICATION_TYPE":"U","NORAD_CAT_ID":66035,"ELEMENT_SET_NO":999,"REV_AT_EPOCH":1978,"BSTAR":7.8072212e-5,"MEAN_MOTION_DOT":6.2e-7,"MEAN_MOTION_DDOT":0},{"OBJECT_NAME":"COSMOS 375 DEB","OBJECT_ID":"1970-091AY","EPOCH":"2026-03-08T21:41:29.932224","MEAN_MOTION":13.16054593,"ECCENTRICITY":0.0827045,"INCLINATION":62.9186,"RA_OF_ASC_NODE":273.547,"ARG_OF_PERICENTER":210.169,"MEAN_ANOMALY":144.9148,"EPHEMERIS_TYPE":0,"CLASSIFICATION_TYPE":"U","NORAD_CAT_ID":19960,"ELEMENT_SET_NO":999,"REV_AT_EPOCH":77978,"BSTAR":-2.2117917e-5,"MEAN_MOTION_DOT":-1.6e-6,"MEAN_MOTION_DDOT":0}]
